[{"OBJECT_NAME":"STARLINK-31044","OBJECT_ID":"2023-200A","EPOCH":"2026-03-09T22:00:01.999584","MEAN_MOTION":15.26737193,"ECCENTRICITY":8.919e-5,"INCLINATION":43.0016,"RA_OF_ASC_NODE":167.4674,"ARG_OF_PERICENTER":247.4599,"MEAN_ANOMALY":217.1503,"EPHEMERIS_TYPE":0,"CLASSIFICATION_TYPE":"U","NORAD_CAT_ID":58589,"ELEMENT_SET_NO":999,"REV_AT_EPOCH":572,"BSTAR":-0.0017094972,"MEAN_MOTION_DOT":-0.00045826,"MEAN_MOTION_DDOT":0},{"OBJECT_NAME":"HERMES-2","OBJECT_ID":"2025-052AK","EPOCH":"2026-03-09T22:17:00.130272","MEAN_MOTION":15.28021069,"ECCENTRICITY":0.00063399,"INCLINATION":97.4004,"RA_OF_ASC_NODE":324.4926,"ARG_OF_PERICENTER":99.416,"MEAN_ANOMALY":260.7796,"EPHEMERIS_TYPE":0,"CLASSIFICATION_TYPE":"U","NORAD_CAT_ID":63243,"ELEMENT_SET_NO":999,"REV_AT_EPOCH":5485,"BSTAR":0.00034839454,"MEAN_MOTION_DOT":9.456e-5,"MEAN_MOTION_DDOT":0}]
